[{"OBJECT_NAME":"STARLINK-34169","OBJECT_ID":"2025-101F","EPOCH":"2026-03-09T05:00:15.716736","MEAN_MOTION":15.27555344,"ECCENTRICITY":0.00019194,"INCLINATION":43.0053,"RA_OF_ASC_NODE":0.5107,"ARG_OF_PERICENTER":260.2441,"MEAN_ANOMALY":99.8194,"EPHEMERIS_TYPE":0,"CLASSIFICATION_TYPE":"U","NORAD_CAT_ID":63999,"ELEMENT_SET_NO":999,"REV_AT_EPOCH":4698,"BSTAR":0.0012345553,"MEAN_MOTION_DOT":0.00033841,"MEAN_MOTION_DDOT":0},{"OBJECT_NAME":"CZ-6A DEB","OBJECT_ID":"2024-140RA","EPOCH":"2026-03-09T01:51:18.259488","MEAN_MOTION":15.31763252,"ECCENTRICITY":0.00411794,"INCLINATION":89.1856,"RA_OF_ASC_NODE":296.0787,"ARG_OF_PERICENTER":96.6516,"MEAN_ANOMALY":263.9425,"EPHEMERIS_TYPE":0,"CLASSIFICATION_TYPE":"U","NORAD_CAT_ID":61156,"ELEMENT_SET_NO":999,"REV_AT_EPOCH":8391,"BSTAR":0.0079173326,"MEAN_MOTION_DOT":0.00256788,"MEAN_MOTION_DDOT":0}]
